{
  "type": "FeatureCollection",
  "features": [
    {
      "type": "Feature",
      "properties": {
        "norad_id": 2807,
        "name": "OPS 7218 (TRANSIT 16)",
        "group": "nnss",
        "lat": 83.67590179623801,
        "lon": -3.2796525975762614,
        "alt_km": 1045.9712559128793,
        "timestamp": "2025-12-20T05:41:50.298886+00:00",
        "meta_object_name": "OPS 7218 (TRANSIT 16)",
        "meta_object_id": "1967-048A",
        "meta_epoch": "2025-12-19T10:34:01.367904",
        "meta_mean_motion": 13.50723636,
        "meta_eccentricity": 0.0022134,
        "meta_inclination": 89.6731,
        "meta_ra_of_asc_node": 353.7939,
        "meta_arg_of_pericenter": 96.2167,
        "meta_mean_anomaly": 73.8764,
        "meta_ephemeris_type": 0,
        "meta_classification_type": "U",
        "meta_norad_cat_id": 2807,
        "meta_element_set_no": 999,
        "meta_rev_at_epoch": 88366,
        "meta_bstar": 0.00015972,
        "meta_mean_motion_dot": 1.13e-06,
        "meta_mean_motion_ddot": 0,
        "tle_line1": "1 02807U 67048A   25353.44029361  .00000113  00000+0  15972-3 0  9990",
        "tle_line2": "2 02807  89.6731 353.7939 0022134  96.2167  73.8764 13.50723636883667"
      },
      "geometry": {
        "type": "Point",
        "coordinates": [
          -3.2796525975762614,
          83.67590179623801
        ]
      }
    },
    {
      "type": "Feature",
      "properties": {
        "norad_id": 2965,
        "name": "OPS 4947 (TRANSIT 17)",
        "group": "nnss",
        "lat": -42.044023648082316,
        "lon": -155.45831835364393,
        "alt_km": 1031.9942364480466,
        "timestamp": "2025-12-20T05:41:50.298908+00:00",
        "meta_object_name": "OPS 4947 (TRANSIT 17)",
        "meta_object_id": "1967-092A",
        "meta_epoch": "2025-12-19T20:35:22.100352",
        "meta_mean_motion": 13.53455355,
        "meta_eccentricity": 0.00466729,
        "meta_inclination": 89.2488,
        "meta_ra_of_asc_node": 23.8927,
        "meta_arg_of_pericenter": 213.2944,
        "meta_mean_anomaly": 320.6179,
        "meta_ephemeris_type": 0,
        "meta_classification_type": "U",
        "meta_norad_cat_id": 2965,
        "meta_element_set_no": 999,
        "meta_rev_at_epoch": 87193,
        "meta_bstar": 0.00019839858,
        "meta_mean_motion_dot": 1.45e-06,
        "meta_mean_motion_ddot": 0,
        "tle_line1": "1 02965U 67092A   25353.85789468  .00000145  00000+0  19840-3 0  9993",
        "tle_line2": "2 02965  89.2488  23.8927 0046672 213.2944 320.6179 13.53455355871939"
      },
      "geometry": {
        "type": "Point",
        "coordinates": [
          -155.45831835364393,
          -42.044023648082316
        ]
      }
    },
    {
      "type": "Feature",
      "properties": {
        "norad_id": 3133,
        "name": "OPS 7034 (TRANSIT 18)",
        "group": "nnss",
        "lat": -39.83750608063884,
        "lon": -86.31618356992188,
        "alt_km": 1128.0677569593372,
        "timestamp": "2025-12-20T05:41:50.298922+00:00",
        "meta_object_name": "OPS 7034 (TRANSIT 18)",
        "meta_object_id": "1968-012A",
        "meta_epoch": "2025-12-19T12:58:57.137376",
        "meta_mean_motion": 13.51567181,
        "meta_eccentricity": 0.007451,
        "meta_inclination": 90.0283,
        "meta_ra_of_asc_node": 273.6582,
        "meta_arg_of_pericenter": 149.5169,
        "meta_mean_anomaly": 23.9801,
        "meta_ephemeris_type": 0,
        "meta_classification_type": "U",
        "meta_norad_cat_id": 3133,
        "meta_element_set_no": 999,
        "meta_rev_at_epoch": 57010,
        "meta_bstar": 0.00014664,
        "meta_mean_motion_dot": 1.07e-06,
        "meta_mean_motion_ddot": 0,
        "tle_line1": "1 03133U 68012A   25353.54093909  .00000107  00000+0  14664-3 0  9995",
        "tle_line2": "2 03133  90.0283 273.6582 0074510 149.5169  23.9801 13.51567181570103"
      },
      "geometry": {
        "type": "Point",
        "coordinates": [
          -86.31618356992188,
          -39.83750608063884
        ]
      }
    },
    {
      "type": "Feature",
      "properties": {
        "norad_id": 4507,
        "name": "NNSS 19 (TRANSIT 19)",
        "group": "nnss",
        "lat": -74.72727278610947,
        "lon": -125.44226655218593,
        "alt_km": 951.6257230559795,
        "timestamp": "2025-12-20T05:41:50.298934+00:00",
        "meta_object_name": "NNSS 19 (TRANSIT 19)",
        "meta_object_id": "1970-067A",
        "meta_epoch": "2025-12-19T22:57:02.997216",
        "meta_mean_motion": 13.51316435,
        "meta_eccentricity": 0.0170258,
        "meta_inclination": 90.0051,
        "meta_ra_of_asc_node": 234.5389,
        "meta_arg_of_pericenter": 272.2629,
        "meta_mean_anomaly": 85.9037,
        "meta_ephemeris_type": 0,
        "meta_classification_type": "U",
        "meta_norad_cat_id": 4507,
        "meta_element_set_no": 999,
        "meta_rev_at_epoch": 72319,
        "meta_bstar": 0.00012470339,
        "meta_mean_motion_dot": 9.6e-07,
        "meta_mean_motion_ddot": 0,
        "tle_line1": "1 04507U 70067A   25353.95628469  .00000096  00000+0  12470-3 0  9994",
        "tle_line2": "2 04507  90.0051 234.5389 0170258 272.2629  85.9037 13.51316435723196"
      },
      "geometry": {
        "type": "Point",
        "coordinates": [
          -125.44226655218593,
          -74.72727278610947
        ]
      }
    },
    {
      "type": "Feature",
      "properties": {
        "norad_id": 6909,
        "name": "NNSS 20 (TRANSIT 20)",
        "group": "nnss",
        "lat": -1.411276085051513,
        "lon": 74.94532516467065,
        "alt_km": 1062.8863931341484,
        "timestamp": "2025-12-20T05:41:50.298945+00:00",
        "meta_object_name": "NNSS 20 (TRANSIT 20)",
        "meta_object_id": "1973-081A",
        "meta_epoch": "2025-12-19T11:19:12.247392",
        "meta_mean_motion": 13.71437552,
        "meta_eccentricity": 0.0156459,
        "meta_inclination": 89.8562,
        "meta_ra_of_asc_node": 254.9533,
        "meta_arg_of_pericenter": 58.3821,
        "meta_mean_anomaly": 303.2502,
        "meta_ephemeris_type": 0,
        "meta_classification_type": "U",
        "meta_norad_cat_id": 6909,
        "meta_element_set_no": 999,
        "meta_rev_at_epoch": 80453,
        "meta_bstar": 0.00023103,
        "meta_mean_motion_dot": 2.38e-06,
        "meta_mean_motion_ddot": 0,
        "tle_line1": "1 06909U 73081A   25353.47166953  .00000238  00000+0  23103-3 0  9996",
        "tle_line2": "2 06909  89.8562 254.9533 0156459  58.3821 303.2502 13.71437552804535"
      },
      "geometry": {
        "type": "Point",
        "coordinates": [
          74.94532516467065,
          -1.411276085051513
        ]
      }
    },
    {
      "type": "Feature",
      "properties": {
        "norad_id": 10457,
        "name": "TRANSAT",
        "group": "nnss",
        "lat": -46.25804468197683,
        "lon": -101.30044354867746,
        "alt_km": 1072.6793284908263,
        "timestamp": "2025-12-20T05:41:50.298956+00:00",
        "meta_object_name": "TRANSAT",
        "meta_object_id": "1977-106A",
        "meta_epoch": "2025-12-19T20:17:38.576832",
        "meta_mean_motion": 13.48944637,
        "meta_eccentricity": 0.00260705,
        "meta_inclination": 89.6481,
        "meta_ra_of_asc_node": 78.3455,
        "meta_arg_of_pericenter": 169.1194,
        "meta_mean_anomaly": 315.2603,
        "meta_ephemeris_type": 0,
        "meta_classification_type": "U",
        "meta_norad_cat_id": 10457,
        "meta_element_set_no": 999,
        "meta_rev_at_epoch": 36839,
        "meta_bstar": 0.00011501896,
        "meta_mean_motion_dot": 8.2e-07,
        "meta_mean_motion_ddot": 0,
        "tle_line1": "1 10457U 77106A   25353.84558538  .00000082  00000+0  11502-3 0  9993",
        "tle_line2": "2 10457  89.6481  78.3455 0026070 169.1194 315.2603 13.48944637368391"
      },
      "geometry": {
        "type": "Point",
        "coordinates": [
          -101.30044354867746,
          -46.25804468197683
        ]
      }
    },
    {
      "type": "Feature",
      "properties": {
        "norad_id": 12458,
        "name": "NOVA 1",
        "group": "nnss",
        "lat": 24.079212654288295,
        "lon": -88.78649516180161,
        "alt_km": 1167.5524452688733,
        "timestamp": "2025-12-20T05:41:50.298967+00:00",
        "meta_object_name": "NOVA 1",
        "meta_object_id": "1981-044A",
        "meta_epoch": "2025-12-19T20:25:06.504672",
        "meta_mean_motion": 13.23279025,
        "meta_eccentricity": 0.00158709,
        "meta_inclination": 89.8528,
        "meta_ra_of_asc_node": 91.2848,
        "meta_arg_of_pericenter": 86.5334,
        "meta_mean_anomaly": 28.4106,
        "meta_ephemeris_type": 0,
        "meta_classification_type": "U",
        "meta_norad_cat_id": 12458,
        "meta_element_set_no": 999,
        "meta_rev_at_epoch": 15280,
        "meta_bstar": 9.2416374e-05,
        "meta_mean_motion_dot": 4.8e-07,
        "meta_mean_motion_ddot": 0,
        "tle_line1": "1 12458U 81044A   25353.85076973  .00000048  00000+0  92416-4 0  9997",
        "tle_line2": "2 12458  89.8528  91.2848 0015870  86.5334  28.4106 13.23279025152805"
      },
      "geometry": {
        "type": "Point",
        "coordinates": [
          -88.78649516180161,
          24.079212654288295
        ]
      }
    }
  ]
}